[{"OBJECT_NAME":"FLOCK 4Q-11","OBJECT_ID":"2023-174T","EPOCH":"2026-04-04T18:49:58.066176","MEAN_MOTION":15.46659048,"ECCENTRICITY":0.0006783,"INCLINATION":97.3878,"RA_OF_ASC_NODE":181.884,"ARG_OF_PERICENTER":75.9165,"MEAN_ANOMALY":284.2838,"EPHEMERIS_TYPE":0,"CLASSIFICATION_TYPE":"U","NORAD_CAT_ID":58273,"ELEMENT_SET_NO":999,"REV_AT_EPOCH":13423,"BSTAR":0.00063119,"MEAN_MOTION_DOT":0.0003151,"MEAN_MOTION_DDOT":0},{"OBJECT_NAME":"FLOCK 4Q-36","OBJECT_ID":"2023-174U","EPOCH":"2026-04-04T18:54:06.078240","MEAN_MOTION":15.52995412,"ECCENTRICITY":0.0006801,"INCLINATION":97.3853,"RA_OF_ASC_NODE":184.7849,"ARG_OF_PERICENTER":60.2451,"MEAN_ANOMALY":299.9478,"EPHEMERIS_TYPE":0,"CLASSIFICATION_TYPE":"U","NORAD_CAT_ID":58274,"ELEMENT_SET_NO":999,"REV_AT_EPOCH":13442,"BSTAR":0.00078177,"MEAN_MOTION_DOT":0.00048909,"MEAN_MOTION_DDOT":0},{"OBJECT_NAME":"FLOCK 4Q-12","OBJECT_ID":"2023-174V","EPOCH":"2026-04-04T18:07:23.170656","MEAN_MOTION":15.57190796,"ECCENTRICITY":0.0002841,"INCLINATION":97.385,"RA_OF_ASC_NODE":184.7349,"ARG_OF_PERICENTER":54.5333,"MEAN_ANOMALY":305.6187,"EPHEMERIS_TYPE":0,"CLASSIFICATION_TYPE":"U","NORAD_CAT_ID":58275,"ELEMENT_SET_NO":999,"REV_AT_EPOCH":13444,"BSTAR":0.0017034,"MEAN_MOTION_DOT":0.00125453,"MEAN_MOTION_DDOT":0},{"OBJECT_NAME":"FLOCK 4Q-28","OBJECT_ID":"2023-174AA","EPOCH":"2026-04-04T18:41:37.442976","MEAN_MOTION":15.50886461,"ECCENTRICITY":0.0005837,"INCLINATION":97.3884,"RA_OF_ASC_NODE":183.8138,"ARG_OF_PERICENTER":67.7634,"MEAN_ANOMALY":292.4237,"EPHEMERIS_TYPE":0,"CLASSIFICATION_TYPE":"U","NORAD_CAT_ID":58280,"ELEMENT_SET_NO":999,"REV_AT_EPOCH":13435,"BSTAR":0.00072471,"MEAN_MOTION_DOT":0.00041995,"MEAN_MOTION_DDOT":0},{"OBJECT_NAME":"FLOCK 4Q-27","OBJECT_ID":"2023-174AC","EPOCH":"2026-04-04T18:36:39.859776","MEAN_MOTION":15.50814883,"ECCENTRICITY":0.000538,"INCLINATION":97.3819,"RA_OF_ASC_NODE":183.3262,"ARG_OF_PERICENTER":65.7137,"MEAN_ANOMALY":294.4676,"EPHEMERIS_TYPE":0,"CLASSIFICATION_TYPE":"U","NORAD_CAT_ID":58282,"ELEMENT_SET_NO":999,"REV_AT_EPOCH":13436,"BSTAR":0.00068876,"MEAN_MOTION_DOT":0.00039791,"MEAN_MOTION_DDOT":0},{"OBJECT_NAME":"FLOCK 4Q-26","OBJECT_ID":"2023-174AE","EPOCH":"2026-04-04T18:46:50.224800","MEAN_MOTION":15.52780368,"ECCENTRICITY":0.0006371,"INCLINATION":97.3876,"RA_OF_ASC_NODE":184.8626,"ARG_OF_PERICENTER":64.7186,"MEAN_ANOMALY":295.4726,"EPHEMERIS_TYPE":0,"CLASSIFICATION_TYPE":"U","NORAD_CAT_ID":58284,"ELEMENT_SET_NO":999,"REV_AT_EPOCH":13442,"BSTAR":0.00071687,"MEAN_MOTION_DOT":0.00044465,"MEAN_MOTION_DDOT":0},{"OBJECT_NAME":"FLOCK 4Q-31","OBJECT_ID":"2023-174AF","EPOCH":"2026-04-04T18:06:39.310560","MEAN_MOTION":15.52613939,"ECCENTRICITY":0.0006408,"INCLINATION":97.3918,"RA_OF_ASC_NODE":184.4782,"ARG_OF_PERICENTER":68.0767,"MEAN_ANOMALY":292.1166,"EPHEMERIS_TYPE":0,"CLASSIFICATION_TYPE":"U","NORAD_CAT_ID":58285,"ELEMENT_SET_NO":999,"REV_AT_EPOCH":13437,"BSTAR":0.00079323,"MEAN_MOTION_DOT":0.00048946,"MEAN_MOTION_DDOT":0},{"OBJECT_NAME":"FLOCK 4Q-30","OBJECT_ID":"2023-174AG","EPOCH":"2026-04-04T19:16:57.736992","MEAN_MOTION":15.52835817,"ECCENTRICITY":0.0004973,"INCLINATION":97.3933,"RA_OF_ASC_NODE":184.7244,"ARG_OF_PERICENTER":68.4826,"MEAN_ANOMALY":291.6956,"EPHEMERIS_TYPE":0,"CLASSIFICATION_TYPE":"U","NORAD_CAT_ID":58286,"ELEMENT_SET_NO":999,"REV_AT_EPOCH":13439,"BSTAR":0.00078004,"MEAN_MOTION_DOT":0.00048497,"MEAN_MOTION_DDOT":0},{"OBJECT_NAME":"PELICAN-1","OBJECT_ID":"2023-174AS","EPOCH":"2026-04-04T05:47:32.219232","MEAN_MOTION":15.64219899,"ECCENTRICITY":0.00090001,"INCLINATION":97.3965,"RA_OF_ASC_NODE":190.1997,"ARG_OF_PERICENTER":228.4162,"MEAN_ANOMALY":131.6326,"EPHEMERIS_TYPE":0,"CLASSIFICATION_TYPE":"U","NORAD_CAT_ID":58296,"ELEMENT_SET_NO":999,"REV_AT_EPOCH":13455,"BSTAR":0.0020408904,"MEAN_MOTION_DOT":0.00198641,"MEAN_MOTION_DDOT":0},{"OBJECT_NAME":"FLOCK 4Q-29","OBJECT_ID":"2023-174BA","EPOCH":"2026-04-04T04:59:40.455168","MEAN_MOTION":15.51390059,"ECCENTRICITY":0.00058254,"INCLINATION":97.3923,"RA_OF_ASC_NODE":183.651,"ARG_OF_PERICENTER":61.8093,"MEAN_ANOMALY":298.3747,"EPHEMERIS_TYPE":0,"CLASSIFICATION_TYPE":"U","NORAD_CAT_ID":58304,"ELEMENT_SET_NO":999,"REV_AT_EPOCH":13427,"BSTAR":0.00096479495,"MEAN_MOTION_DOT":0.00057056,"MEAN_MOTION_DDOT":0},{"OBJECT_NAME":"FLOCK 4Q-22","OBJECT_ID":"2023-174BC","EPOCH":"2026-04-04T18:22:58.281312","MEAN_MOTION":15.54474096,"ECCENTRICITY":0.0004526,"INCLINATION":97.3814,"RA_OF_ASC_NODE":184.4863,"ARG_OF_PERICENTER":60.5503,"MEAN_ANOMALY":299.6202,"EPHEMERIS_TYPE":0,"CLASSIFICATION_TYPE":"U","NORAD_CAT_ID":58306,"ELEMENT_SET_NO":999,"REV_AT_EPOCH":13444,"BSTAR":0.00076154,"MEAN_MOTION_DOT":0.00050242,"MEAN_MOTION_DDOT":0},{"OBJECT_NAME":"FLOCK 4Q-23","OBJECT_ID":"2023-174BD","EPOCH":"2026-04-04T19:05:54.712896","MEAN_MOTION":15.5789299,"ECCENTRICITY":0.0005173,"INCLINATION":97.3935,"RA_OF_ASC_NODE":186.2563,"ARG_OF_PERICENTER":54.7249,"MEAN_ANOMALY":305.449,"EPHEMERIS_TYPE":0,"CLASSIFICATION_TYPE":"U","NORAD_CAT_ID":58307,"ELEMENT_SET_NO":999,"REV_AT_EPOCH":13449,"BSTAR":0.00069235,"MEAN_MOTION_DOT":0.00051823,"MEAN_MOTION_DDOT":0},{"OBJECT_NAME":"FLOCK 4Q-33","OBJECT_ID":"2023-174BE","EPOCH":"2026-04-04T18:27:59.591808","MEAN_MOTION":15.53315968,"ECCENTRICITY":0.0005941,"INCLINATION":97.3859,"RA_OF_ASC_NODE":184.3973,"ARG_OF_PERICENTER":48.5378,"MEAN_ANOMALY":311.6385,"EPHEMERIS_TYPE":0,"CLASSIFICATION_TYPE":"U","NORAD_CAT_ID":58308,"ELEMENT_SET_NO":999,"REV_AT_EPOCH":13442,"BSTAR":0.00070437,"MEAN_MOTION_DOT":0.00044535,"MEAN_MOTION_DDOT":0},{"OBJECT_NAME":"FLOCK 4Q-35","OBJECT_ID":"2023-174BF","EPOCH":"2026-04-04T18:35:11.619456","MEAN_MOTION":15.52253767,"ECCENTRICITY":0.0005725,"INCLINATION":97.3885,"RA_OF_ASC_NODE":184.5323,"ARG_OF_PERICENTER":62.4733,"MEAN_ANOMALY":297.7101,"EPHEMERIS_TYPE":0,"CLASSIFICATION_TYPE":"U","NORAD_CAT_ID":58309,"ELEMENT_SET_NO":999,"REV_AT_EPOCH":13440,"BSTAR":0.00072997,"MEAN_MOTION_DOT":0.00044425,"MEAN_MOTION_DDOT":0},{"OBJECT_NAME":"FLOCK 4Q-34","OBJECT_ID":"2023-174BN","EPOCH":"2026-04-04T19:15:34.498368","MEAN_MOTION":15.58214458,"ECCENTRICITY":0.0005376,"INCLINATION":97.3831,"RA_OF_ASC_NODE":185.6367,"ARG_OF_PERICENTER":52.4917,"MEAN_ANOMALY":307.6826,"EPHEMERIS_TYPE":0,"CLASSIFICATION_TYPE":"U","NORAD_CAT_ID":58316,"ELEMENT_SET_NO":999,"REV_AT_EPOCH":13450,"BSTAR":0.00075747,"MEAN_MOTION_DOT":0.00057436,"MEAN_MOTION_DDOT":0},{"OBJECT_NAME":"FLOCK 4Q-7","OBJECT_ID":"2023-174BQ","EPOCH":"2026-04-04T18:18:07.934976","MEAN_MOTION":15.51194509,"ECCENTRICITY":0.0006278,"INCLINATION":97.3907,"RA_OF_ASC_NODE":184.0167,"ARG_OF_PERICENTER":52.6448,"MEAN_ANOMALY":307.5375,"EPHEMERIS_TYPE":0,"CLASSIFICATION_TYPE":"U","NORAD_CAT_ID":58318,"ELEMENT_SET_NO":999,"REV_AT_EPOCH":13435,"BSTAR":0.00069702,"MEAN_MOTION_DOT":0.00040829,"MEAN_MOTION_DDOT":0}]
