FLOCK 4Q-11             
1 58273U 23174T   26094.78469984  .00031510  00000+0  63119-3 0  9990
2 58273  97.3878 181.8840 0006783  75.9165 284.2838 15.46659048134232
FLOCK 4Q-36             
1 58274U 23174U   26094.78757035  .00048909  00000+0  78177-3 0  9998
2 58274  97.3853 184.7849 0006801  60.2451 299.9478 15.52995412134422
FLOCK 4Q-12             
1 58275U 23174V   26094.75512929  .00125453  00000+0  17034-2 0  9991
2 58275  97.3850 184.7349 0002841  54.5333 305.6187 15.57190796134441
FLOCK 4Q-28             
1 58280U 23174AA  26094.77890559  .00041995  00000+0  72471-3 0  9992
2 58280  97.3884 183.8138 0005837  67.7634 292.4237 15.50886461134351
FLOCK 4Q-27             
1 58282U 23174AC  26094.77546134  .00039791  00000+0  68876-3 0  9996
2 58282  97.3819 183.3262 0005380  65.7137 294.4676 15.50814883134362
FLOCK 4Q-26             
1 58284U 23174AE  26094.78252575  .00044465  00000+0  71687-3 0  9990
2 58284  97.3876 184.8626 0006371  64.7186 295.4726 15.52780368134427
FLOCK 4Q-31             
1 58285U 23174AF  26094.75462165  .00048946  00000+0  79323-3 0  9999
2 58285  97.3918 184.4782 0006408  68.0767 292.1166 15.52613939134372
FLOCK 4Q-30             
1 58286U 23174AG  26094.80344603  .00048497  00000+0  78004-3 0  9998
2 58286  97.3933 184.7244 0004973  68.4826 291.6956 15.52835817134395
PELICAN-1               
1 58296U 23174AS  26094.24134513  .00198641  00000+0  20409-2 0  9996
2 58296  97.3965 190.1997 0009000 228.4162 131.6326 15.64219899134555
FLOCK 4Q-29             
1 58304U 23174BA  26094.20810712  .00057056  00000+0  96479-3 0  9999
2 58304  97.3923 183.6510 0005825  61.8093 298.3747 15.51390059134271
FLOCK 4Q-22             
1 58306U 23174BC  26094.76595233  .00050242  00000+0  76154-3 0  9998
2 58306  97.3814 184.4863 0004526  60.5503 299.6202 15.54474096134447
FLOCK 4Q-23             
1 58307U 23174BD  26094.79577214  .00051823  00000+0  69235-3 0  9999
2 58307  97.3935 186.2563 0005173  54.7249 305.4490 15.57892990134490
FLOCK 4Q-33             
1 58308U 23174BE  26094.76943972  .00044535  00000+0  70437-3 0  9993
2 58308  97.3859 184.3973 0005941  48.5378 311.6385 15.53315968134423
FLOCK 4Q-35             
1 58309U 23174BF  26094.77444004  .00044425  00000+0  72997-3 0  9998
2 58309  97.3885 184.5323 0005725  62.4733 297.7101 15.52253767134409
FLOCK 4Q-34             
1 58316U 23174BN  26094.80248262  .00057436  00000+0  75747-3 0  9990
2 58316  97.3831 185.6367 0005376  52.4917 307.6826 15.58214458134509
FLOCK 4Q-7              
1 58318U 23174BQ  26094.76259184  .00040829  00000+0  69702-3 0  9994
2 58318  97.3907 184.0167 0006278  52.6448 307.5375 15.51194509134357
